[{"OBJECT_NAME":"STARLINK-30535","OBJECT_ID":"2023-153L","EPOCH":"2026-03-09T01:20:09.280608","MEAN_MOTION":15.26739724,"ECCENTRICITY":0.00018594,"INCLINATION":42.9996,"RA_OF_ASC_NODE":70.2617,"ARG_OF_PERICENTER":273.2776,"MEAN_ANOMALY":86.7863,"EPHEMERIS_TYPE":0,"CLASSIFICATION_TYPE":"U","NORAD_CAT_ID":58001,"ELEMENT_SET_NO":999,"REV_AT_EPOCH":13480,"BSTAR":-3.906097e-6,"MEAN_MOTION_DOT":-3.65e-6,"MEAN_MOTION_DDOT":0},{"OBJECT_NAME":"FLOCK 4G-21","OBJECT_ID":"2025-009AU","EPOCH":"2026-03-09T04:40:37.351200","MEAN_MOTION":15.28381075,"ECCENTRICITY":4.655e-5,"INCLINATION":97.4032,"RA_OF_ASC_NODE":151.1274,"ARG_OF_PERICENTER":329.5782,"MEAN_ANOMALY":30.5431,"EPHEMERIS_TYPE":0,"CLASSIFICATION_TYPE":"U","NORAD_CAT_ID":62651,"ELEMENT_SET_NO":999,"REV_AT_EPOCH":6367,"BSTAR":0.00049618643,"MEAN_MOTION_DOT":0.00013648,"MEAN_MOTION_DDOT":0}]
